FORMOSAT 7-3            
1 44343U 19036E   26068.82630502  .00006445  00000+0  37650-3 0  9997
2 44343  23.9981 141.9797 0001061 150.4425 209.6139 15.08933962368215
STARLINK-3714           
1 52094U 22029G   26068.47825409  .00000132  00000+0  26381-4 0  9995
2 52094  53.2183  90.0768 0001373  64.3264 295.7870 15.08824496220620
